[{"OBJECT_NAME":"QB50P2","OBJECT_ID":"2014-033Y","EPOCH":"2026-03-09T22:15:59.880096","MEAN_MOTION":15.13675048,"ECCENTRICITY":0.00085666,"INCLINATION":98.0738,"RA_OF_ASC_NODE":59.7545,"ARG_OF_PERICENTER":142.3387,"MEAN_ANOMALY":217.8444,"EPHEMERIS_TYPE":0,"CLASSIFICATION_TYPE":"U","NORAD_CAT_ID":40032,"ELEMENT_SET_NO":999,"REV_AT_EPOCH":63764,"BSTAR":0.00059145643,"MEAN_MOTION_DOT":0.00010584,"MEAN_MOTION_DDOT":0},{"OBJECT_NAME":"STARLINK-5336","OBJECT_ID":"2023-090AP","EPOCH":"2026-03-09T22:00:01.999584","MEAN_MOTION":15.11535992,"ECCENTRICITY":0.00017643,"INCLINATION":43.0001,"RA_OF_ASC_NODE":260.5587,"ARG_OF_PERICENTER":295.7344,"MEAN_ANOMALY":137.865,"EPHEMERIS_TYPE":0,"CLASSIFICATION_TYPE":"U","NORAD_CAT_ID":57138,"ELEMENT_SET_NO":999,"REV_AT_EPOCH":577,"BSTAR":0.0061430475,"MEAN_MOTION_DOT":0.00107346,"MEAN_MOTION_DDOT":0}]
